[{"CCSDS_OMM_VERS":"3.0","COMMENT":"GENERATED VIA SPACE-TRACK.ORG API","CREATION_DATE":"2026-06-06T16:36:28","ORIGINATOR":"18 SPCS","OBJECT_NAME":"GALILEO 16 (26C)","OBJECT_ID":"2016-069B","CENTER_NAME":"EARTH","REF_FRAME":"TEME","TIME_SYSTEM":"UTC","MEAN_ELEMENT_THEORY":"SGP4","EPOCH":"2026-06-06T00:58:02.680320","MEAN_MOTION":"1.70473908","ECCENTRICITY":"0.00046810","INCLINATION":"55.4899","RA_OF_ASC_NODE":"101.3899","ARG_OF_PERICENTER":"354.1097","MEAN_ANOMALY":"5.8552","EPHEMERIS_TYPE":"0","CLASSIFICATION_TYPE":"U","NORAD_CAT_ID":"41860","ELEMENT_SET_NO":"999","REV_AT_EPOCH":"5946","BSTAR":"0.00000000000000","MEAN_MOTION_DOT":"0.00000021","MEAN_MOTION_DDOT":"0.0000000000000","SEMIMAJOR_AXIS":"29600.331","PERIOD":"844.704","APOAPSIS":"23236.052","PERIAPSIS":"23208.340","OBJECT_TYPE":"PAYLOAD","RCS_SIZE":"LARGE","COUNTRY_CODE":"ESA","LAUNCH_DATE":"2016-11-17","SITE":"FRGUI","DECAY_DATE":null,"FILE":"5232957","GP_ID":"327509663","TLE_LINE0":"0 GALILEO 16 (26C)","TLE_LINE1":"1 41860U 16069B   26157.04030880  .00000021  00000-0  00000+0 0  9997","TLE_LINE2":"2 41860  55.4899 101.3899 0004681 354.1097   5.8552  1.70473908 59468"},{"CCSDS_OMM_VERS":"3.0","COMMENT":"GENERATED VIA SPACE-TRACK.ORG API","CREATION_DATE":"2026-06-09T19:23:37","ORIGINATOR":"18 SPCS","OBJECT_NAME":"GALILEO 16 (26C)","OBJECT_ID":"2016-069B","CENTER_NAME":"EARTH","REF_FRAME":"TEME","TIME_SYSTEM":"UTC","MEAN_ELEMENT_THEORY":"SGP4","EPOCH":"2026-06-08T23:21:27.776160","MEAN_MOTION":"1.70473849","ECCENTRICITY":"0.00046762","INCLINATION":"55.4916","RA_OF_ASC_NODE":"101.3087","ARG_OF_PERICENTER":"355.4065","MEAN_ANOMALY":"4.5623","EPHEMERIS_TYPE":"0","CLASSIFICATION_TYPE":"U","NORAD_CAT_ID":"41860","ELEMENT_SET_NO":"999","REV_AT_EPOCH":"5951","BSTAR":"0.00000000000000","MEAN_MOTION_DOT":"0.00000024","MEAN_MOTION_DDOT":"0.0000000000000","SEMIMAJOR_AXIS":"29600.338","PERIOD":"844.704","APOAPSIS":"23236.044","PERIAPSIS":"23208.361","OBJECT_TYPE":"PAYLOAD","RCS_SIZE":"LARGE","COUNTRY_CODE":"ESA","LAUNCH_DATE":"2016-11-17","SITE":"FRGUI","DECAY_DATE":null,"FILE":"5240046","GP_ID":"328408869","TLE_LINE0":"0 GALILEO 16 (26C)","TLE_LINE1":"1 41860U 16069B   26159.97323815  .00000024  00000-0  00000-0 0  9998","TLE_LINE2":"2 41860  55.4916 101.3087 0004676 355.4065   4.5623  1.70473849 59515"},{"CCSDS_OMM_VERS":"3.0","COMMENT":"GENERATED VIA SPACE-TRACK.ORG API","CREATION_DATE":"2026-06-09T15:56:29","ORIGINATOR":"18 SPCS","OBJECT_NAME":"GALILEO 16 (26C)","OBJECT_ID":"2016-069B","CENTER_NAME":"EARTH","REF_FRAME":"TEME","TIME_SYSTEM":"UTC","MEAN_ELEMENT_THEORY":"SGP4","EPOCH":"2026-06-08T23:21:27.776160","MEAN_MOTION":"1.70473849","ECCENTRICITY":"0.00046760","INCLINATION":"55.4915","RA_OF_ASC_NODE":"101.3087","ARG_OF_PERICENTER":"355.4065","MEAN_ANOMALY":"4.5623","EPHEMERIS_TYPE":"0","CLASSIFICATION_TYPE":"U","NORAD_CAT_ID":"41860","ELEMENT_SET_NO":"999","REV_AT_EPOCH":"5951","BSTAR":"0.00000000000000","MEAN_MOTION_DOT":"0.00000024","MEAN_MOTION_DDOT":"0.0000000000000","SEMIMAJOR_AXIS":"29600.338","PERIOD":"844.704","APOAPSIS":"23236.044","PERIAPSIS":"23208.361","OBJECT_TYPE":"PAYLOAD","RCS_SIZE":"LARGE","COUNTRY_CODE":"ESA","LAUNCH_DATE":"2016-11-17","SITE":"FRGUI","DECAY_DATE":null,"FILE":"5239406","GP_ID":"328334959","TLE_LINE0":"0 GALILEO 16 (26C)","TLE_LINE1":"1 41860U 16069B   26159.97323815  .00000024  00000-0  00000+0 0  9997","TLE_LINE2":"2 41860  55.4915 101.3087 0004676 355.4065   4.5623  1.70473849 59514"},{"CCSDS_OMM_VERS":"3.0","COMMENT":"GENERATED VIA SPACE-TRACK.ORG API","CREATION_DATE":"2026-06-10T11:00:42","ORIGINATOR":"18 SPCS","OBJECT_NAME":"GALILEO 16 (26C)","OBJECT_ID":"2016-069B","CENTER_NAME":"EARTH","REF_FRAME":"TEME","TIME_SYSTEM":"UTC","MEAN_ELEMENT_THEORY":"SGP4","EPOCH":"2026-06-09T13:26:08.510208","MEAN_MOTION":"1.70473816","ECCENTRICITY":"0.00046784","INCLINATION":"55.4919","RA_OF_ASC_NODE":"101.2925","ARG_OF_PERICENTER":"355.5007","MEAN_ANOMALY":"4.4663","EPHEMERIS_TYPE":"0","CLASSIFICATION_TYPE":"U","NORAD_CAT_ID":"41860","ELEMENT_SET_NO":"999","REV_AT_EPOCH":"5952","BSTAR":"0.00000000000000","MEAN_MOTION_DOT":"0.00000022","MEAN_MOTION_DDOT":"0.0000000000000","SEMIMAJOR_AXIS":"29600.341","PERIOD":"844.705","APOAPSIS":"23236.055","PERIAPSIS":"23208.358","OBJECT_TYPE":"PAYLOAD","RCS_SIZE":"LARGE","COUNTRY_CODE":"ESA","LAUNCH_DATE":"2016-11-17","SITE":"FRGUI","DECAY_DATE":null,"FILE":"5240916","GP_ID":"328556088","TLE_LINE0":"0 GALILEO 16 (26C)","TLE_LINE1":"1 41860U 16069B   26160.55982072  .00000022  00000-0  00000-0 0  9998","TLE_LINE2":"2 41860  55.4919 101.2925 0004678 355.5007   4.4663  1.70473816 59525"},{"CCSDS_OMM_VERS":"3.0","COMMENT":"GENERATED VIA SPACE-TRACK.ORG API","CREATION_DATE":"2026-06-10T07:17:33","ORIGINATOR":"18 SPCS","OBJECT_NAME":"GALILEO 16 (26C)","OBJECT_ID":"2016-069B","CENTER_NAME":"EARTH","REF_FRAME":"TEME","TIME_SYSTEM":"UTC","MEAN_ELEMENT_THEORY":"SGP4","EPOCH":"2026-06-09T13:26:08.510208","MEAN_MOTION":"1.70473816","ECCENTRICITY":"0.00046780","INCLINATION":"55.4919","RA_OF_ASC_NODE":"101.2925","ARG_OF_PERICENTER":"355.5007","MEAN_ANOMALY":"4.4663","EPHEMERIS_TYPE":"0","CLASSIFICATION_TYPE":"U","NORAD_CAT_ID":"41860","ELEMENT_SET_NO":"999","REV_AT_EPOCH":"5952","BSTAR":"0.00000000000000","MEAN_MOTION_DOT":"0.00000022","MEAN_MOTION_DDOT":"0.0000000000000","SEMIMAJOR_AXIS":"29600.341","PERIOD":"844.705","APOAPSIS":"23236.053","PERIAPSIS":"23208.359","OBJECT_TYPE":"PAYLOAD","RCS_SIZE":"LARGE","COUNTRY_CODE":"ESA","LAUNCH_DATE":"2016-11-17","SITE":"FRGUI","DECAY_DATE":null,"FILE":"5240297","GP_ID":"328483165","TLE_LINE0":"0 GALILEO 16 (26C)","TLE_LINE1":"1 41860U 16069B   26160.55982072  .00000022  00000-0  00000+0 0  9997","TLE_LINE2":"2 41860  55.4919 101.2925 0004678 355.5007   4.4663  1.70473816 59525"},{"CCSDS_OMM_VERS":"3.0","COMMENT":"GENERATED VIA SPACE-TRACK.ORG API","CREATION_DATE":"2026-06-10T17:34:46","ORIGINATOR":"18 SPCS","OBJECT_NAME":"GALILEO 16 (26C)","OBJECT_ID":"2016-069B","CENTER_NAME":"EARTH","REF_FRAME":"TEME","TIME_SYSTEM":"UTC","MEAN_ELEMENT_THEORY":"SGP4","EPOCH":"2026-06-10T03:30:48.933216","MEAN_MOTION":"1.70473868","ECCENTRICITY":"0.00046789","INCLINATION":"55.4922","RA_OF_ASC_NODE":"101.2762","ARG_OF_PERICENTER":"355.7318","MEAN_ANOMALY":"4.2331","EPHEMERIS_TYPE":"0","CLASSIFICATION_TYPE":"U","NORAD_CAT_ID":"41860","ELEMENT_SET_NO":"999","REV_AT_EPOCH":"5953","BSTAR":"0.00000000000000","MEAN_MOTION_DOT":"0.00000018","MEAN_MOTION_DDOT":"0.0000000000000","SEMIMAJOR_AXIS":"29600.335","PERIOD":"844.704","APOAPSIS":"23236.050","PERIAPSIS":"23208.351","OBJECT_TYPE":"PAYLOAD","RCS_SIZE":"LARGE","COUNTRY_CODE":"ESA","LAUNCH_DATE":"2016-11-17","SITE":"FRGUI","DECAY_DATE":null,"FILE":"5241716","GP_ID":"328662658","TLE_LINE0":"0 GALILEO 16 (26C)","TLE_LINE1":"1 41860U 16069B   26161.14639969  .00000018  00000-0  00000-0 0  9993","TLE_LINE2":"2 41860  55.4922 101.2762 0004679 355.7318   4.2331  1.70473868 59534"},{"CCSDS_OMM_VERS":"3.0","COMMENT":"GENERATED VIA SPACE-TRACK.ORG API","CREATION_DATE":"2026-06-10T15:57:07","ORIGINATOR":"18 SPCS","OBJECT_NAME":"GALILEO 16 (26C)","OBJECT_ID":"2016-069B","CENTER_NAME":"EARTH","REF_FRAME":"TEME","TIME_SYSTEM":"UTC","MEAN_ELEMENT_THEORY":"SGP4","EPOCH":"2026-06-10T03:30:48.933216","MEAN_MOTION":"1.70473868","ECCENTRICITY":"0.00046790","INCLINATION":"55.4922","RA_OF_ASC_NODE":"101.2762","ARG_OF_PERICENTER":"355.7318","MEAN_ANOMALY":"4.2331","EPHEMERIS_TYPE":"0","CLASSIFICATION_TYPE":"U","NORAD_CAT_ID":"41860","ELEMENT_SET_NO":"999","REV_AT_EPOCH":"5953","BSTAR":"0.00000000000000","MEAN_MOTION_DOT":"0.00000018","MEAN_MOTION_DDOT":"0.0000000000000","SEMIMAJOR_AXIS":"29600.335","PERIOD":"844.704","APOAPSIS":"23236.050","PERIAPSIS":"23208.350","OBJECT_TYPE":"PAYLOAD","RCS_SIZE":"LARGE","COUNTRY_CODE":"ESA","LAUNCH_DATE":"2016-11-17","SITE":"FRGUI","DECAY_DATE":null,"FILE":"5241304","GP_ID":"328595005","TLE_LINE0":"0 GALILEO 16 (26C)","TLE_LINE1":"1 41860U 16069B   26161.14639969  .00000018  00000-0  00000+0 0  9992","TLE_LINE2":"2 41860  55.4922 101.2762 0004679 355.7318   4.2331  1.70473868 59534"},{"CCSDS_OMM_VERS":"3.0","COMMENT":"GENERATED VIA SPACE-TRACK.ORG API","CREATION_DATE":"2026-06-13T10:14:27","ORIGINATOR":"18 SPCS","OBJECT_NAME":"GALILEO 16 (26C)","OBJECT_ID":"2016-069B","CENTER_NAME":"EARTH","REF_FRAME":"TEME","TIME_SYSTEM":"UTC","MEAN_ELEMENT_THEORY":"SGP4","EPOCH":"2026-06-12T11:49:31.821024","MEAN_MOTION":"1.70473717","ECCENTRICITY":"0.00046589","INCLINATION":"55.4937","RA_OF_ASC_NODE":"101.2113","ARG_OF_PERICENTER":"357.7539","MEAN_ANOMALY":"2.2023","EPHEMERIS_TYPE":"0","CLASSIFICATION_TYPE":"U","NORAD_CAT_ID":"41860","ELEMENT_SET_NO":"999","REV_AT_EPOCH":"5957","BSTAR":"0.00000000000000","MEAN_MOTION_DOT":"0.00000000","MEAN_MOTION_DDOT":"0.0000000000000","SEMIMAJOR_AXIS":"29600.353","PERIOD":"844.705","APOAPSIS":"23236.008","PERIAPSIS":"23208.427","OBJECT_TYPE":"PAYLOAD","RCS_SIZE":"LARGE","COUNTRY_CODE":"ESA","LAUNCH_DATE":"2016-11-17","SITE":"FRGUI","DECAY_DATE":null,"FILE":"5243522","GP_ID":"328981521","TLE_LINE0":"0 GALILEO 16 (26C)","TLE_LINE1":"1 41860U 16069B   26163.49272941  .00000000  00000-0  00000-0 0  9997","TLE_LINE2":"2 41860  55.4937 101.2113 0004659 357.7539   2.2023  1.70473717 59578"}]